OUFTI-1                 
1 41458U 16025C   22287.48968058  .00032552  00000+0  12820-2 0  9996
2 41458  98.1945 103.4333 0133540 219.4882 139.6561 15.17589620355612
E-ST@R-II               
1 41459U 16025D   22288.45802985  .00026341  00000+0  10683-2 0  9995
2 41459  98.1939 102.8016 0137629 221.1552 137.9248 15.16243215355667
AAUSAT 4                
1 41460U 16025E   22288.45090153  .00046537  00000+0  15815-2 0  9994
2 41460  98.1826 110.2108 0114448 193.2362 225.0342 15.24181720356184
AIST-2D (RS-48)         
1 41465U 16026B   22288.44481073  .00025500  00000+0  55020-3 0  9994
2 41465  97.0343 160.8457 0011013  62.2559  20.7214 15.44471985362032
NUSAT-1 (FRESCO)        
1 41557U 16033B   22288.58109238  .00025850  00000+0  69436-3 0  9993
2 41557  97.3900  26.7186 0009227 309.6521 164.7962 15.37864636355825
NUSAT-2 (BATATA)        
1 41558U 16033C   22288.45221161  .00025632  00000+0  64778-3 0  9992
2 41558  97.4128  32.9760 0008753 296.2743 126.0187 15.39746026356090
CARTOSAT-2C             
1 41599U 16040A   22288.55637900  .00006427  00000+0  30675-3 0  9998
2 41599  97.4737 347.0234 0014509 122.7604  13.4022 15.19316227350165
SATHYABAMASAT           
1 41600U 16040B   22287.54863545  .00038732  00000+0  10642-2 0  9990
2 41600  97.2054 337.3428 0010972  59.7297 300.5032 15.37058750351168
LAPAN-A3                
1 41603U 16040E   22288.45260252  .00002532  00000+0  11684-3 0  9997
2 41603  97.1957 320.2059 0014832  97.7882  15.0524 15.20999875350273
BIROS                   
1 41604U 16040F   22287.83821149  .00007242  00000+0  29032-3 0  9996
2 41604  97.1981 327.7371 0013164  74.0921 286.1767 15.25224218350658
SWAYAM                  
1 41607U 16040J   22288.10157347  .00033077  00000+0  94740-3 0  9995
2 41607  97.2005 335.9187 0011309  58.8603 301.3749 15.35790318351113
BEESAT-4                
1 41619U 16040W   22288.12197009  .00031241  00000+0  92940-3 0  9990
2 41619  97.2024 335.7090 0009658  56.1471 304.0690 15.34625740339055
3CAT-2                  
1 41732U 16051B   22288.34010713  .00022600  00000+0  63889-3 0  9997
2 41732  97.3800 211.5238 0008785 210.7900 267.8177 15.36305784343713
PRATHAM                 
1 41783U 16059A   22288.08338591  .00000679  00000+0  13890-3 0  9998
2 41783  97.9017 324.7822 0034009 153.9093 206.3833 14.63461487323122
ALSAT 1N                
1 41789U 16059G   22288.37502699  .00001150  00000+0  22273-3 0  9998
2 41789  97.9049 329.9145 0029292 135.4003 224.9566 14.64819829323422
LISHUI 1-01             
1 41845U 16066E   22288.46103631  .00055815  00000+0  47232-2 0  9990
2 41845  98.7263  69.8121 0189591  48.5441 313.1912 14.84882990314567
CARTOSAT-2D             
1 41948U 17008A   22287.97113385  .00005666  00000+0  27259-3 0  9990
2 41948  97.4511 346.1517 0005201 266.9672  92.8679 15.19168767313940
NAYIF-1 (EO-88)         
1 42017U 17008BX  22288.14595010  .00039518  00000+0  10274-2 0  9998
2 42017  97.2552 352.7311 0004862 162.3568 197.7847 15.38813338315453
ZHUHAI-1 02 (CAS-4B)    
1 42759U 17034B   22288.52556343  .00008374  00000+0  47996-3 0  9996
2 42759  43.0182  30.4823 0010913 323.4574 146.0682 15.12820527294532
ZHUHAI-1 01 (CAS-4A)    
1 42761U 17034D   22288.41796463  .00008801  00000+0  50245-3 0  9992
2 42761  43.0192  29.7769 0011241 325.3133 119.5613 15.12910133294524
UCLSAT                  
1 42765U 17036A   22288.06265533  .00022683  00000+0  72011-3 0  9997
2 42765  97.1844 327.1028 0007025 250.9828 109.0653 15.32645219295569
NIUSAT                  
1 42766U 17036B   22288.55896232  .00015080  00000+0  54598-3 0  9991
2 42766  97.1912 322.1635 0011109 257.7706 102.2291 15.28430342295133
CARTOSAT-2E             
1 42767U 17036C   22288.00702699  .00010731  00000+0  51268-3 0  9994
2 42767  97.4396 346.8673 0007586 333.3703 123.9426 15.19181290294516
LITUANICASAT-2          
1 42768U 17036D   22288.08868760  .00055861  00000+0  12860-2 0  9992
2 42768  97.1912 331.2494 0008094 224.0530 136.0074 15.42405036295648
AALTO-1                 
1 42775U 17036L   22288.53784586  .00012603  00000+0  47317-3 0  9996
2 42775  97.1864 321.8337 0010154 258.1616 101.8485 15.27282656295095
URSA MAIOR              
1 42776U 17036M   22288.07627029  .00014070  00000+0  51663-3 0  9993
2 42776  97.1875 322.2490 0009813 257.9830 102.0311 15.27996253295061
COMPASS 2               
1 42777U 17036N   22288.09570982  .00040352  00000+0  11102-2 0  9996
2 42777  97.1907 329.9157 0007508 231.8881 128.1687 15.37040501295497
MAX VALIER SAT          
1 42778U 17036P   22288.11311622  .00018346  00000+0  65292-3 0  9992
2 42778  97.1929 325.1601 0008502 257.4181 102.6109 15.28976602295177
PEGASUS                 
1 42784U 17036V   22288.06156216  .00021291  00000+0  69989-3 0  9999
2 42784  97.1868 326.2261 0007650 256.1350 103.9041 15.31533898295301
NUDTSAT                 
1 42787U 17036Y   22288.19342413  .00041918  00000+0  10975-2 0  9990
2 42787  97.1888 331.4929 0006356 241.1306 118.9300 15.38575564295477
SUCHAI                  
1 42788U 17036Z   22288.09475872  .00029225  00000+0  88844-3 0  9994
2 42788  97.1863 328.2558 0007029 247.4291 112.6209 15.33975931295503
SKCUBE                  
1 42789U 17036AA  22287.37748799  .00020451  00000+0  64587-3 0  9996
2 42789  97.1869 326.8676 0007127 252.6131 107.4332 15.32832038295277
VZLUSAT-1               
1 42790U 17036AB  22287.10992081  .00034776  00000+0  92276-3 0  9995
2 42790  97.1881 330.3654 0006042 237.8431 122.2229 15.38205533295452
ROBUSTA-1B              
1 42792U 17036AD  22288.06862822  .00026262  00000+0  80729-3 0  9993
2 42792  97.1864 328.2064 0006701 248.6396 111.4133 15.33646230295438
D-SAT                   
1 42794U 17036AF  22288.45917846  .00005018  00000+0  41935-3 0  9997
2 42794  97.4562 287.5962 0122983  43.8708 317.2199 14.93168308289414
NORSAT 2                
1 42828U 17042D   22287.65482065  .00003865  00000+0  37346-3 0  9992
2 42828  97.4147 137.3149 0013147 330.6881  29.3601 14.93304857285955
TECHNOSAT               
1 42829U 17042E   22288.53496093  .00002545  00000+0  25480-3 0  9997
2 42829  97.4065 135.6067 0013101 332.0277  28.0237 14.92159229285995
2017-042F               
1 42830U 17042F   22288.50392063  .00008444  00000+0  75432-3 0  9994
2 42830  97.4197 140.7773 0012367 318.7865  41.2422 14.96089691286220
FLYING LAPTOP           
1 42831U 17042G   22288.52006059  .00001593  00000+0  16204-3 0  9994
2 42831  97.4074 135.9299 0013104 331.6219  28.4317 14.92011909285997
CORVUS BC2              
1 42846U 17042X   22288.51555063  .00002326  00000+0  22753-3 0  9994
2 42846  97.4069 138.9640 0008380 322.2738  37.7894 14.93209897286194
CORVUS BC1              
1 42847U 17042Y   22288.05202833  .00002226  00000+0  21747-3 0  9999
2 42847  97.4071 138.8529 0008095 323.2521  36.8144 14.93295128286131
CZ-4C R/B               
1 43012U 17072C   22287.88444595  .00000399  00000+0  92590-4 0  9994
2 43012  98.6856 329.0699 0126242 312.5730  46.4867 14.56420626261246
RADFXSAT (FOX-1B)       
1 43017U 17073E   22288.16576853  .00005869  00000+0  43532-3 0  9993
2 43017  97.6565 177.4240 0246328 155.1797 206.1507 14.82268954264844
EAGLESAT 1              
1 43018U 17073F   22288.24516008  .00010537  00000+0  74410-3 0  9996
2 43018  97.6607 179.7583 0237216 147.3387 214.2756 14.85079692264861
INS-1C                  
1 43116U 18004F   22288.36799024  .00024915  00000+0  78488-3 0  9998
2 43116  97.3660   3.6774 0006108 288.6628  71.3950 15.32882228264682
FLOCK 3P'-3             
1 43119U 18004J   22287.63409792  .00012574  00000+0  45291-3 0  9994
2 43119  97.3648   0.3601 0007640 309.4776  50.5788 15.28678829264416
FLOCK 3P'-2             
1 43120U 18004K   22288.13113898  .00012287  00000+0  44794-3 0  9999
2 43120  97.3653   0.4000 0007464 309.0516  51.0059 15.28288180264458
FLOCK 3P'-1             
1 43121U 18004L   22288.16084152  .00056700  00000+0  12724-2 0  9998
2 43121  97.3700   7.4981 0005038 269.0723  90.9947 15.43186576264852
FLOCK 3P'-4             
1 43122U 18004M   22288.18341523  .00011546  00000+0  42155-3 0  9990
2 43122  97.3655   0.6324 0007439 310.8259  49.2335 15.28257815264467
MICROMAS-2A             
1 43131U 18004W   22288.13707742  .00057841  00000+0  13310-2 0  9992
2 43131  97.3655   8.0757 0004906 277.5759  82.4931 15.42430782264989
PICSAT                  
1 43132U 18004X   22288.15449182  .00027683  00000+0  82181-3 0  9990
2 43132  97.3620   4.0550 0005972 293.2897  66.7717 15.34748024264744
CNUSAIL-1               
1 43133U 18004Y   22287.49859063  .00018015  00000+0  60707-3 0  9999
2 43133  97.3571   0.7278 0006716 305.9741  54.0877 15.30776268264492
2018-004Z               
1 43134U 18004Z   22287.48379233  .00024292  00000+0  76192-3 0  9994
2 43134  97.3602   2.3825 0006205 300.4680  59.5949 15.33026831264586
FOX-1D (AO-92)          
1 43137U 18004AC  22288.14229376  .00021521  00000+0  70172-3 0  9997
2 43137  97.3581   2.3253 0006033 301.7332  58.3321 15.31808084264641
STEP CUBE LAB           
1 43138U 18004AD  22288.17975310  .00046536  00000+0  11854-2 0  9991
2 43138  97.3657   7.0788 0005249 287.0305  73.0366 15.39401649264923
XIAOXIANG-2             
1 43155U 18008A   22288.49736391  .00014116  00000+0  71409-3 0  9995
2 43155  97.3394 343.0658 0017275  87.5153  24.5800 15.17005248261466
ZHOU ENLAI              
1 43156U 18008B   22288.52712230  .00015018  00000+0  76377-3 0  9997
2 43156  97.3433 343.0086 0014085  87.9704  19.5471 15.16849283261392
QUANTUTONG 1            
1 43158U 18008D   22288.12813712  .00012597  00000+0  66507-3 0  9995
2 43158  97.3396 340.3445 0014207  91.3819 322.3133 15.15568845261226
S-NET D                 
1 43186U 18014G   22288.18869538  .00003335  00000+0  28452-3 0  9993
2 43186  97.6450 191.5931 0009579 255.9111 104.1047 14.98350004256844
